[{"OBJECT_NAME":"FLOCK 4G-10","OBJECT_ID":"2025-009BP","EPOCH":"2026-03-09T16:59:55.292640","MEAN_MOTION":15.27155944,"ECCENTRICITY":0.00034694,"INCLINATION":97.3967,"RA_OF_ASC_NODE":150.5883,"ARG_OF_PERICENTER":341.4844,"MEAN_ANOMALY":18.6269,"EPHEMERIS_TYPE":0,"CLASSIFICATION_TYPE":"U","NORAD_CAT_ID":62670,"ELEMENT_SET_NO":999,"REV_AT_EPOCH":12134,"BSTAR":0.00052624432,"MEAN_MOTION_DOT":0.00013952,"MEAN_MOTION_DDOT":0},{"OBJECT_NAME":"STARLINK-35974","OBJECT_ID":"2025-281Q","EPOCH":"2026-03-09T03:41:41.873568","MEAN_MOTION":15.27571682,"ECCENTRICITY":0.00018218,"INCLINATION":43.0029,"RA_OF_ASC_NODE":346.4961,"ARG_OF_PERICENTER":265.8098,"MEAN_ANOMALY":94.2545,"EPHEMERIS_TYPE":0,"CLASSIFICATION_TYPE":"U","NORAD_CAT_ID":66862,"ELEMENT_SET_NO":999,"REV_AT_EPOCH":1610,"BSTAR":0.0011520303,"MEAN_MOTION_DOT":0.00031567,"MEAN_MOTION_DDOT":0}]
